GOES 14                 
1 35491U 09033A   26119.80730424 -.00000062  00000+0  00000+0 0  9991
2 35491   1.5670  83.5975 0001878 320.6214 273.0816  1.00117427  6109
EWS-G2 (GOES 15)        
1 36411U 10008A   26119.85774442  .00000023  00000+0  00000+0 0  9997
2 36411   1.1501  83.7159 0004246  23.5278 122.6211  1.00272986 59151
GOES 16                 
1 41866U 16071A   26119.61055750 -.00000092  00000+0  00000+0 0  9998
2 41866   0.2198  85.3906 0001390 258.1008 349.1589  1.00271524 34610
GOES 17                 
1 43226U 18022A   26119.82749764 -.00000182  00000+0  00000+0 0  9996
2 43226   0.8154  86.3652 0000683 296.4792  43.3474  1.00271770 29936
GOES 18                 
1 51850U 22021A   26119.74673645  .00000096  00000+0  00000+0 0  9990
2 51850   0.0058 317.1908 0000588 134.6128 257.7178  1.00272620  6103
GOES 19                 
1 60133U 24119A   26119.75886983 -.00000249  00000+0  00000+0 0  9997
2 60133   0.0052 211.8332 0000680 237.4136 326.4685  1.00272196  6471
